C/2024 G4 (PANSTARRS),e,33.0297,152.9705,131.4040,3918,0.0000040,0.99874931,0.0000,03/21.4168/2026,2000,g  8.0,4.0
# From MPC194189
C/2024 G5 (Leonard),e,50.3898,316.3823,209.6200,636.6526,0.0000614,0.99536011,0.0000,09/07.2162/2024,2000,g 13.0,4.0
# From MPEC 2026-O09
C/2024 G6 (ATLAS),h,02/20.5382/2026,120.4463,250.9476,23.4185,1.001350,6.429983,2000,5.5,4.0
# From MPEC 2026-O09
C/2024 G7 (ATLAS),h,02/09.8578/2025,131.5040,191.9763,289.6472,1.001305,6.027294,2000,7.0,4.0
# From MPC194189
P/2024 J1 (PANSTARRS),e,13.1637,321.9366,200.3927,3.809196,0.1325727,0.30783092,129.7049,07/17.0/2026,2000,g 14.5,4.0
# From MPC191588
C/2024 J2 (Wierzchos),e,79.3021,189.0687,143.1386,145.7769,0.0005600,0.98757705,0.0000,03/19.7266/2025,2000,g 11.5,4.0
# From MPEC 2026-O09
C/2024 J3 (ATLAS),h,11/25.4224/2026,75.6395,285.9601,74.0901,1.000044,3.865496,2000,5.0,4.0
# From MPEC 2026-O09
C/2024 J4 (Lemmon),e,117.5158,19.3143,127.8561,4327,0.0000035,0.99868386,0.0000,04/25.9075/2025,2000,g  8.0,4.0
# From MPC194190
P/2024 K1 (PANSTARRS),e,1.8204,251.5840,349.3785,6.834460,0.0551630,0.49078105,44.8752,07/17.0/2026,2000,g 13.5,4.0
# From MPC194190
C/2024 L1 (PANSTARRS),e,99.1493,45.1343,171.7772,11.46015,0.0254050,0.53333957,11.4334,07/17.0/2026,2000,g 10.0,4.0
# From MPEC 2026-L50
C/2024 L2 (PANSTARRS),h,06/16.7553/2025,139.5807,266.1800,345.8497,1.004821,8.325821,2000,7.5,3.2
# From MPC194190
C/2024 L3 (PANSTARRS),h,11/23.3681/2023,111.5923,295.0039,59.0409,1.003134,6.857747,2000,9.5,4.0
# From MPEC 2026-GD5
C/2024 L5 (ATLAS),h,03/11.5277/2025,166.6056,139.1854,290.8075,1.039799,3.442486,2000,9.0,4.0
# From MPC194190
C/2024 M1 (ATLAS),e,73.7077,76.2242,345.6019,29.75646,0.0060720,0.94272829,3.6679,07/17.0/2026,2000,g 12.0,4.0
# From MPC194190
C/2024 N1 (PANSTARRS),h,10/18.9829/2025,88.7814,323.0257,91.2726,1.000908,4.398785,2000,10.5,4.0
# From MPEC 2026-O09
C/2024 N3 (Sarneczky),h,04/11.6404/2025,88.7246,82.6149,86.9034,1.002294,5.014843,2000,8.0,4.0
# From MPC194190
C/2024 N4 (Sarneczky),h,01/10.4176/2025,49.7972,339.6441,116.7630,1.003128,5.399764,2000,7.5,4.0
# From MPC194190
C/2024 O1 (PANSTARRS),e,59.0823,303.3464,349.8187,28716,0.0000002,0.99977006,0.0000,01/27.6959/2023,2000,g  8.5,4.0
# From MPC194190
P/2024 O2 (PANSTARRS),e,28.9815,6.8122,310.7268,7.372675,0.0492341,0.49853088,40.2891,07/17.0/2026,2000,g 12.0,4.0
# From MPC194191
C/2024 PN7 (PANSTARRS),e,101.2033,358.5841,74.2646,66.43981,0.0018200,0.97705078,0.0000,12/06.3259/2024,2000,g 15.2,4.0
# From MPC194191
C/2024 Q3 (PANSTARRS),h,03/05.1428/2025,121.3877,337.2866,70.1416,1.001183,2.092508,2000,15.0,4.0
# From MPC194191
C/2024 Q4 (PANSTARRS),e,3.3177,324.2644,133.0392,470.3034,0.0000966,0.98847456,0.0000,11/11.5433/2024,2000,g 10.0,4.0
# From MPC194191
P/2024 R2 (PANSTARRS),e,15.1248,192.9648,203.7527,3.145952,0.1766347,0.26882757,115.4964,07/17.0/2026,2000,g 15.5,4.0
# From MPC194191
P/2024 R3 (PANSTARRS),e,14.7027,32.8170,309.7980,3.201045,0.1720943,0.26919960,137.2749,07/17.0/2026,2000,g 15.0,4.0
# From MPEC 2026-O09
C/2024 R4 (PANSTARRS),h,10/26.8201/2027,95.3795,345.9470,109.0157,1.002201,4.408350,2000,6.5,4.0
# From MPEC 2026-O09
C/2024 S1 (ATLAS),e,142.3148,348.6310,70.3285,83.77095,0.0012855,0.99990529,0.0000,10/28.2834/2024,2000,g 15.5,4.0
# From MPC194192
P/2024 S2 (Rankin),e,7.5252,8.3173,49.1849,5.010334,0.0878828,0.59141494,58.7790,07/17.0/2026,2000,g 15.0,4.0
# From MPC194192
P/2024 T1 (Rankin),e,17.6200,279.7120,164.8852,6.598060,0.0581540,0.65321092,38.0728,07/17.0/2026,2000,g 14.5,4.0
# From MPC194192
P/2024 T2 (Rankin),e,12.9288,113.0602,343.8612,6.173033,0.0642623,0.68031697,37.6377,07/17.0/2026,2000,g 16.0,4.0
# From MPC194192
C/2024 T3 (PANSTARRS),e,53.3995,74.7958,336.9050,87.43338,0.0012056,0.95749559,0.5893,07/17.0/2026,2000,g 11.5,4.0
# From MPEC 2026-O09
C/2024 T5 (ATLAS),h,05/06.3091/2027,52.3878,100.6766,352.4814,1.002185,3.839597,2000,5.5,4.0
# From MPC194192
C/2024 U1 (PANSTARRS),e,128.7571,270.2725,188.1354,496.3100,0.0000891,0.99025146,0.0000,06/30.7530/2024,2000,g 10.0,4.0
# From MPC194192
A/2024 U2,h,01/15.6990/2026,120.6755,56.0785,29.8526,1.003483,8.179036,2000,12.1,2.0
# From MPC194192
C/2024 V1 (Borisov),e,54.6241,328.1891,168.6945,233.3957,0.0002764,0.99006321,0.0000,04/04.1391/2025,2000,g 14.8,4.0
# From MPC194192
C/2024 W1 (PANSTARRS),e,83.2039,310.7244,256.7517,45.28414,0.0032343,0.94344903,1.5680,07/17.0/2026,2000,g 15.0,4.0
# From MPC194192
A/2024 W2,h,02/27.4818/2025,116.6159,241.9432,168.0275,1.002189,3.721434,2000,15.6,2.0
# From MPEC 2026-L50
C/2024 X1 (Fazekas),e,6.4739,351.9203,124.3435,9.388146,0.0342637,0.59349282,11.9302,07/17.0/2026,2000,g 11.3,4.0
# From MPEC 2026-N12
C/2024 X2 (ATLAS),e,109.2972,122.5196,315.4904,51.36492,0.0026773,0.92860324,1.0048,07/17.0/2026,2000,g  9.6,4.0
# From MPEC 2026-K60
P/2024 X3 (PANSTARRS),e,2.9724,113.3633,352.9986,6.997147,0.0532504,0.62615737,36.1652,07/17.0/2026,2000,g 14.6,4.0
# From MPC194193
C/2024 X4 (PANSTARRS),e,34.6389,258.9352,153.3821,10.11843,0.0306221,0.64369719,9.7253,07/17.0/2026,2000,g 12.6,4.0
# From MPC194193
C/2024 XK14 (Bok),e,109.2055,239.0951,243.4951,17.02373,0.0140321,0.87901693,5.9224,07/17.0/2026,2000,g 15.5,4.0
# From MPEC 2026-M30
C/2025 A1 (Lemmon),e,33.4021,101.3057,68.3530,14782,0.0000005,0.99963903,0.0000,03/15.1051/2027,2000,g  7.2,4.0
# From MPC194193
P/2025 A2 (PANSTARRS),e,20.7333,189.3185,278.0837,5.083292,0.0859976,0.32179496,55.8363,07/17.0/2026,2000,g 13.2,4.0
# From MPEC 2026-N12
C/2025 A3 (Tsuchinshan),e,9.9759,322.4294,222.3684,10.20379,0.0302386,0.43234502,3.7282,07/17.0/2026,2000,g  9.0,4.0
# From MPC194193
C/2025 A4 (PANSTARRS),e,32.0200,69.9170,102.8312,11.07306,0.0267487,0.65458479,14.7003,07/17.0/2026,2000,g 12.4,4.0
# From MPEC 2026-O09
C/2025 A6 (Lemmon),e,143.6635,108.0974,132.9571,121.4364,0.0007365,0.99563699,0.0000,11/08.5326/2025,2000,g 13.2,4.0
# From MPC194194
A/2025 A7,e,133.6558,348.8631,195.5846,2530,0.0000077,0.99886006,0.0000,03/28.0515/2025,2000,g 14.9,2.0
# From MPC194194
C/2025 B1 (PANSTARRS),e,39.6648,102.8462,23.5578,12495,0.0000007,0.99971748,0.0000,06/26.8155/2025,2000,g 12.0,4.0
# From MPEC 2026-O09
C/2025 B2 (Borisov),h,09/11.9685/2026,91.7465,84.8720,78.8726,1.002483,8.238792,2000,6.2,4.0
# From MPC194194
P/2025 C1 (ATLAS),e,7.5167,9.0869,186.8387,4.197665,0.1146021,0.34582612,60.1983,07/17.0/2026,2000,g 10.8,4.0
# From MPC194194
C/2025 D1 (Groeller),h,05/22.9157/2028,84.4491,312.9034,185.9706,1.003178,14.115447,2000,1.2,4.0
# From MPEC 2026-H88
P/2025 D2 (PANSTARRS),e,5.3584,257.1831,317.9440,8.710808,0.0383368,0.14871130,322.8405,07/17.0/2026,2000,g  8.2,4.0
# From MPC194194
P/2025 D3 (PANSTARRS),e,9.6417,186.6281,294.5969,3.969099,0.1246425,0.25242644,89.8426,07/17.0/2026,2000,g 14.7,4.0
# From MPC194194
P/2025 D4 (ATLAS),e,15.9370,233.1109,332.9057,8.914688,0.0370292,0.63489425,19.1668,07/17.0/2026,2000,g 13.2,4.0
# From MPC194194
C/2025 D6 (ATLAS),e,145.8850,151.5535,285.5269,1010,0.0000307,0.99751683,0.0000,12/11.1949/2024,2000,g 13.2,4.0
# From MPEC 2026-N12
C/2025 E1 (PANSTARRS),e,69.0593,344.5891,274.4243,1809,0.0000128,0.99779042,0.0000,09/23.7084/2026,2000,g  9.7,4.0
# From MPC194195
C/2025 F2 (SWAN),h,05/01.1427/2025,90.3766,329.8193,153.8538,1.000151,0.333884,2000,11.2,4.0
# From MPEC 2026-N12
C/2025 J1 (Borisov),e,95.4296,273.9826,166.6164,1918,0.0000117,0.99813349,0.0000,06/11.7456/2026,2000,g  9.1,4.0
# From MPEC 2026-O09
C/2025 K1 (ATLAS),h,10/08.4288/2025,147.8654,97.5618,271.0234,1.000227,0.334227,2000,12.2,4.0
# From MPC191590
C/2025 K1-B,h,10/08.4407/2025,147.9179,97.6437,271.3239,1.001961,0.335775,2000,14.7,4.0
# From MPC191590
C/2025 K1-C,e,147.8479,97.5337,270.9221,1352,0.0000198,0.99975318,0.0000,10/08.4275/2025,2000,g 14.0,4.0
# From MPC194195
C/2025 K1-D,h,10/08.4475/2025,147.9568,97.7072,271.5469,1.003087,0.336942,2000,14.0,4.0
# From MPC194195
C/2025 K2 (PANSTARRS),e,113.9795,113.8290,232.4651,25.26379,0.0077617,0.88664464,2.0545,07/17.0/2026,2000,g 13.7,4.0
# From MPEC 2026-O09
C/2025 K3 (PANSTARRS),h,12/14.1325/2028,104.9365,350.6537,188.6246,1.001327,3.468546,2000,6.4,4.0
# From MPC191590
C/2025 K4 (Siverd),e,38.5436,297.0812,326.9168,43.34689,0.0034536,0.94159242,1.2218,07/17.0/2026,2000,g 14.1,4.0
# From MPEC 2026-L50
C/2025 L1 (ATLAS),h,01/12.7359/2026,114.1362,208.1107,341.2544,1.001423,1.679737,2000,11.4,4.0
# From MPEC 2026-L50
C/2025 L2 (MAPS),e,86.5844,134.9867,232.6416,471.2623,0.0000963,0.99398702,0.0000,12/20.6520/2025,2000,g 11.7,4.0
# From MPEC 2026-O09
C/2025 M1 (PANSTARRS),e,64.8826,66.9565,230.3846,5370,0.0000025,0.99798288,0.0000,08/02.4437/2029,2000,g  2.9,4.0
# From MPEC 2026-O09
C/2025 M2 (PANSTARRS),h,11/23.5480/2027,173.2153,305.5342,96.7565,1.001793,2.721040,2000,13.4,4.0
# From MPEC 2026-M30
C/2025 M3 (PANSTARRS),e,137.2157,65.3541,197.0157,6416,0.0000019,0.99899136,0.0000,07/23.2014/2026,2000,g  9.0,4.0
# From MPEC 2026-N12
C/2025 N2 (ATLAS),h,12/12.0678/2024,81.6629,94.4572,230.0866,1.000788,8.984217,2000,5.1,4.0
# From MPC194196
C/2025 O2 (MAPS),e,134.5470,332.3116,280.2531,3090,0.0000057,0.99925923,0.0000,05/23.7596/2025,2000,g 14.3,4.0
# From MPC194196
A/2025 O4,e,144.2420,68.6442,151.9464,185.3622,0.0003905,0.98284083,0.0000,06/10.0811/2025,2000,g 15.4,2.0
# From MPC194196
A/2025 P1,e,117.7983,342.4266,334.5165,56.71907,0.0023073,0.96164784,1.0925,07/17.0/2026,2000,g 17.1,4.0
# From MPC191591
C/2025 Q1 (ATLAS),e,66.1652,326.9399,280.2330,1383,0.0000192,0.99269578,0.0000,07/11.9593/2024,2000,g  3.8,4.0
# From MPEC 2026-M30
C/2025 Q3 (ATLAS),e,90.1855,233.1444,218.4599,773.0609,0.0000459,0.99726728,0.0000,02/25.6487/2026,2000,g 12.2,4.0
# From MPEC 2026-N12
C/2025 R1 (ATLAS),e,110.0242,60.3997,77.5537,166.8191,0.0004574,0.98815961,0.0000,11/23.3415/2025,2000,g 14.0,4.0
# From MPEC 2026-N12
C/2025 R2 (SWAN),e,4.4729,335.3150,308.3752,86.70496,0.0012208,0.99418439,0.0000,09/12.8247/2025,2000,g 12.4,4.0
# From MPEC 2026-N12
C/2025 R3 (PANSTARRS),h,04/19.8936/2026,124.7313,38.6956,162.2265,1.000355,0.498626,2000,12.2,4.0
# From MPEC 2026-K60
